SITRO-AIS 8 (ANOKHIN)   
1 57193U 23091AD  26191.85524411  .00008947  00000+0  28468-3 0  9997
2 57193  97.5049 257.6731 0009982  23.6343 336.5355 15.32782120168074
SITRO-AIS 7 (FARTUSHNIY)
1 57194U 23091AE  26191.85719098  .00006155  00000+0  24140-3 0  9997
2 57194  97.5057 254.7927 0011594  32.5725 327.6226 15.26061695167880
AVION KALUGA 650        
1 57195U 23091AF  26191.78825505  .00003683  00000+0  17101-3 0  9993
2 57195  97.5081 251.2708 0010886  37.0184 323.1801 15.20603741167618
HORS 2                  
1 57196U 23091AG  26191.87105662  .00008257  00000+0  26553-3 0  9992
2 57196  97.5083 259.2311 0007315  11.2483 348.8920 15.32491396168158
A-SEANSAT-PG1           
1 57197U 23091AH  26191.83354757  .00011389  00000+0  30881-3 0  9999
2 57197  97.5075 261.9310 0006126   6.5157 353.6166 15.37784543168344
SITRO-AIS 10 (BURDAEV)  
1 57199U 23091AK  26191.85035481  .00012630  00000+0  32351-3 0  9997
2 57199  97.5075 262.9712 0005271 359.3920   0.7318 15.39517793168409
SITRO-AIS 9 (SHCHUKIN)  
1 57201U 23091AM  26191.81942547  .00012503  00000+0  32567-3 0  9995
2 57201  97.5073 262.6507 0005537 359.9404   0.1839 15.39004444168381
UTMN 2 (RS27S)          
1 57203U 23091AP  26191.83064557  .00007902  00000+0  25312-3 0  9992
2 57203  97.5081 259.3867 0007197   6.4517 353.6816 15.32633836168160
SITRO-AIS 12 (SMIRENNIY)
1 57204U 23091AQ  26191.87055654  .00013174  00000+0  33974-3 0  9996
2 57204  97.5087 263.1850 0005062 352.7532   7.3639 15.39300684168418
SITRO-AIS 11 (SHEFFER)  
1 57208U 23091AU  26191.87731631  .00013171  00000+0  33480-3 0  9995
2 57208  97.5085 263.4538 0004958 352.3994   7.7175 15.39742549168438
H2SAT (HEINRICH HERTZ)  
1 57213U 23093A   26191.06798597  .00000014  00000+0  00000+0 0  9998
2 57213   0.0175 102.3909 0000798  32.1109 178.6751  1.00273286 11148
KUZGTU 1 (RS47S)        
1 57217U 23091AV  26191.83823294  .00007100  00000+0  24375-3 0  9996
2 57217  97.5057 256.5656 0010544  21.6805 338.4880 15.30406457167999
QIANKUN-1               
1 57422U 23103B   26190.51657901  .00014836  17439-5  17457-4 0  9990
2 57422  96.1478 233.7894 0036275 139.5319 220.8675 16.07683835170888
FENGYUN 3F              
1 57490U 23111A   26191.86191792  .00000003  00000+0  21611-4 0  9992
2 57490  98.6827 261.4285 0001361  78.2527 281.8802 14.19942955152227
HJ-2F                   
1 57519U 23116A   26191.84737576  .00004739  00000+0  20648-3 0  9991
2 57519  97.3847 196.6587 0007027 331.0914  28.9932 15.22656595162352
XRISM                   
1 57800U 23137A   26191.41934508  .00002427  00000+0  12993-3 0  9990
2 57800  31.0008 209.0912 0007815 198.8570 161.1780 15.12649774156389
METEOR-M2 4             
1 59051U 24039A   26191.88867611 -.00000006  00000+0  16936-4 0  9997
2 59051  98.7022 150.8903 0008227  99.4812 260.7296 14.22431905122635
GRBBETA                 
1 60237U 24128C   26190.31968764  .00002568  00000+0  18354-3 0  9991
2 60237  61.9890 138.6053 0037769 139.4381 220.9537 15.06782844109609
TRANSPORTER-11 OBJECT A 
1 60468U 24149A   26189.75798866  .00006218  00000+0  19585-3 0  9993
2 60468  97.3723 269.6246 0004586 132.7841 227.3788 15.33269761105366
WARATAH SEED-1          
1 60469U 24149B   26191.75555558  .00009398  00000+0  26569-3 0  9998
2 60469  97.3688 272.3599 0003108 129.4804 230.6716 15.36546367105732
PHISAT 2                
1 60470U 24149C   26190.20098502  .00004732  00000+0  15878-3 0  9998
2 60470  97.3750 269.2980 0002890 133.4562 226.6921 15.31364030105368
LEMUR-2-TOMATOKECHUP    
1 60471U 24149D   26191.16513986  .00008259  00000+0  23404-3 0  9995
2 60471  97.3795 273.2768 0003048 131.7960 228.3545 15.36515487105692
CONNECTA IOT-1          
1 60472U 24149E   26191.67313595  .00002670  00000+0  11410-3 0  9991
2 60472  97.3754 267.5692 0002429 152.0524 208.0844 15.23720794105371
LOPEN                   
1 60473U 24149F   26189.76787722  .00011867  00000+0  29618-3 0  9993
2 60473  97.3769 273.3128 0002438 145.2182 214.9224 15.40332623105581
ROCK                    
1 60474U 24149G   26189.75456404  .00011046  00000+0  27596-3 0  9995
2 60474  97.3767 273.3139 0002736 144.4938 215.6491 15.40321242105582
CONNECTA IOT-3          
1 60475U 24149H   26191.16895471  .00002870  00000+0  12237-3 0  9996
2 60475  97.3727 266.8195 0003505 155.4468 204.6937 15.23731231105300
QUBE                    
1 60476U 24149J   26190.47880746  .00021010  00000+0  39888-3 0  9997
2 60476  97.3766 277.3580 0003335 141.9147 218.2340 15.48313313105914
WREN-1                  
1 60478U 24149L   26191.17129090  .00016702  00000+0  38701-3 0  9990
2 60478  97.3761 275.5386 0005059 166.2884 193.8501 15.42489784105869
TOMORROW-S1             
1 60479U 24149M   26191.17983622  .00005297  00000+0  16838-3 0  9994
2 60479  97.3745 271.5833 0003726 142.2101 217.9404 15.33047112105618
